{
  "norad_id": 55673,
  "name": "STARLINK-5463",
  "history": [
    {
      "epoch": "2026-03-28T11:52:44.542272Z",
      "apogee_km": 574.3728660923598,
      "perigee_km": 569.8329693780952,
      "latitude_deg": 2.2238487214022656e-05,
      "longitude_deg": 112.85252466424349,
      "height_km": 574.5023715318562,
      "semi_major_axis_km": 6950.239917735227,
      "eccentricity": 0.0003266,
      "inclination_deg": 69.9987,
      "raan_deg": 116.9527,
      "arg_perigee_deg": 270.7104,
      "mean_anomaly_deg": 89.3681,
      "mean_motion_rev_day": 14.98314793
    },
    {
      "epoch": "2026-03-29T03:54:05.089824Z",
      "apogee_km": 574.3837356109034,
      "perigee_km": 569.7743523305417,
      "latitude_deg": -6.901772594955966e-06,
      "longitude_deg": -129.8246163307675,
      "height_km": 574.4635843051932,
      "semi_major_axis_km": 6950.216043970722,
      "eccentricity": 0.0003316,
      "inclination_deg": 69.9986,
      "raan_deg": 115.2692,
      "arg_perigee_deg": 271.0717,
      "mean_anomaly_deg": 89.0062,
      "mean_motion_rev_day": 14.98322513
    },
    {
      "epoch": "2026-03-30T02:19:56.752032Z",
      "apogee_km": 574.241068286783,
      "perigee_km": 569.848553382335,
      "latitude_deg": 7.210323712827862e-06,
      "longitude_deg": -109.56777903017206,
      "height_km": 574.3039998035239,
      "semi_major_axis_km": 6950.181810834559,
      "eccentricity": 0.000316,
      "inclination_deg": 69.9986,
      "raan_deg": 112.9125,
      "arg_perigee_deg": 274.3947,
      "mean_anomaly_deg": 85.6851,
      "mean_motion_rev_day": 14.98333583
    },
    {
      "epoch": "2026-03-30T05:32:12.873984Z",
      "apogee_km": 574.2103433482407,
      "perigee_km": 569.8785732525412,
      "latitude_deg": 1.187897409875887e-05,
      "longitude_deg": -158.10315523407144,
      "height_km": 574.3094797820595,
      "semi_major_axis_km": 6950.181458300391,
      "eccentricity": 0.00031163,
      "inclination_deg": 69.9987,
      "raan_deg": 112.5759,
      "arg_perigee_deg": 274.3008,
      "mean_anomaly_deg": 85.7795,
      "mean_motion_rev_day": 14.98333697
    },
    {
      "epoch": "2026-03-30T11:56:45.174912Z",
      "apogee_km": 574.2172317385093,
      "perigee_km": 569.8760080458533,
      "latitude_deg": -3.967373834767815e-06,
      "longitude_deg": 104.82574499095944,
      "height_km": 574.3159494222683,
      "semi_major_axis_km": 6950.183619892181,
      "eccentricity": 0.00031231,
      "inclination_deg": 69.9988,
      "raan_deg": 111.9026,
      "arg_perigee_deg": 274.1778,
      "mean_anomaly_deg": 85.9024,
      "mean_motion_rev_day": 14.98332998
    },
    {
      "epoch": "2026-03-30T18:21:18.009792Z",
      "apogee_km": 573.8932600570151,
      "perigee_km": 570.2060470335764,
      "latitude_deg": 3.888101445055522e-05,
      "longitude_deg": 7.750635571741082,
      "height_km": 574.2887977160965,
      "semi_major_axis_km": 6950.1866535452955,
      "eccentricity": 0.00026526,
      "inclination_deg": 69.9999,
      "raan_deg": 111.2275,
      "arg_perigee_deg": 275.85,
      "mean_anomaly_deg": 84.2357,
      "mean_motion_rev_day": 14.98332017
    },
    {
      "epoch": "2026-03-31T18:23:19.603104Z",
      "apogee_km": 574.4152451950667,
      "perigee_km": 569.7030122198021,
      "latitude_deg": -5.314300466018924e-05,
      "longitude_deg": 3.733632703400692,
      "height_km": 574.4634444996794,
      "semi_major_axis_km": 6950.196128707434,
      "eccentricity": 0.000339,
      "inclination_deg": 69.9997,
      "raan_deg": 108.7042,
      "arg_perigee_deg": 270.5713,
      "mean_anomaly_deg": 89.5057,
      "mean_motion_rev_day": 14.98328953
    },
    {
      "epoch": "2026-04-01T18:25:20.238240Z",
      "apogee_km": 574.0657293017239,
      "perigee_km": 570.0374000096499,
      "latitude_deg": 4.124693997291803e-07,
      "longitude_deg": -0.2809142090472323,
      "height_km": 574.5169973733556,
      "semi_major_axis_km": 6950.188564655687,
      "eccentricity": 0.0002898,
      "inclination_deg": 69.9996,
      "raan_deg": 106.1793,
      "arg_perigee_deg": 268.9161,
      "mean_anomaly_deg": 91.1666,
      "mean_motion_rev_day": 14.98331399
    },
    {
      "epoch": "2026-04-02T18:27:21.096288Z",
      "apogee_km": 574.2188510935894,
      "perigee_km": 569.9036120155806,
      "latitude_deg": 3.499013649615486e-05,
      "longitude_deg": -4.296399784830694,
      "height_km": 574.5828948438023,
      "semi_major_axis_km": 6950.198231554585,
      "eccentricity": 0.00031044,
      "inclination_deg": 69.9989,
      "raan_deg": 103.6544,
      "arg_perigee_deg": 267.4983,
      "mean_anomaly_deg": 92.5821,
      "mean_motion_rev_day": 14.98328273
    },
    {
      "epoch": "2026-04-03T10:28:40.981152Z",
      "apogee_km": 574.1800977291205,
      "perigee_km": 569.8565451067725,
      "latitude_deg": 6.0020127069420413e-05,
      "longitude_deg": 113.02944783298612,
      "height_km": 574.5855672274092,
      "semi_major_axis_km": 6950.155321417947,
      "eccentricity": 0.00031104,
      "inclination_deg": 69.9987,
      "raan_deg": 101.9711,
      "arg_perigee_deg": 266.2934,
      "mean_anomaly_deg": 93.787,
      "mean_motion_rev_day": 14.98342149
    },
    {
      "epoch": "2026-04-04T10:30:42.424992Z",
      "apogee_km": 574.1451701712112,
      "perigee_km": 569.9517062852019,
      "latitude_deg": 2.034061643303131e-05,
      "longitude_deg": 109.01118661072597,
      "height_km": 574.582775561783,
      "semi_major_axis_km": 6950.185438228206,
      "eccentricity": 0.00030168,
      "inclination_deg": 69.999,
      "raan_deg": 99.4459,
      "arg_perigee_deg": 267.0769,
      "mean_anomaly_deg": 93.0045,
      "mean_motion_rev_day": 14.9833241
    },
    {
      "epoch": "2026-04-05T10:32:42.988416Z",
      "apogee_km": 574.0859332740138,
      "perigee_km": 569.9915847343846,
      "latitude_deg": -4.816221759418668e-05,
      "longitude_deg": 104.99669253611178,
      "height_km": 574.4886832996776,
      "semi_major_axis_km": 6950.175759004199,
      "eccentricity": 0.00029455,
      "inclination_deg": 69.9992,
      "raan_deg": 96.9208,
      "arg_perigee_deg": 269.3684,
      "mean_anomaly_deg": 90.7137,
      "mean_motion_rev_day": 14.9833554
    },
    {
      "epoch": "2026-04-06T05:46:19.352928Z",
      "apogee_km": 574.1709182681616,
      "perigee_km": 569.8997593590675,
      "latitude_deg": 7.97006608108939e-06,
      "longitude_deg": 173.78607715437838,
      "height_km": 574.4429060420579,
      "semi_major_axis_km": 6950.172338813614,
      "eccentricity": 0.00030727,
      "inclination_deg": 69.9988,
      "raan_deg": 94.9013,
      "arg_perigee_deg": 270.5333,
      "mean_anomaly_deg": 89.5474,
      "mean_motion_rev_day": 14.98336646
    },
    {
      "epoch": "2026-04-07T05:48:20.250720Z",
      "apogee_km": 574.0152051730283,
      "perigee_km": 570.0777872187637,
      "latitude_deg": 5.0941748196354406e-05,
      "longitude_deg": 169.77082514582708,
      "height_km": 574.5014755448125,
      "semi_major_axis_km": 6950.183496195896,
      "eccentricity": 0.00028326,
      "inclination_deg": 69.9996,
      "raan_deg": 92.3768,
      "arg_perigee_deg": 269.1933,
      "mean_anomaly_deg": 90.8902,
      "mean_motion_rev_day": 14.98333038
    },
    {
      "epoch": "2026-04-08T09:02:38.636448Z",
      "apogee_km": 574.1663052289978,
      "perigee_km": 570.0442555373484,
      "latitude_deg": -2.564519387265832e-05,
      "longitude_deg": 117.21364383474035,
      "height_km": 574.8062649611396,
      "semi_major_axis_km": 6950.242280383173,
      "eccentricity": 0.00029654,
      "inclination_deg": 70.0004,
      "raan_deg": 89.5149,
      "arg_perigee_deg": 262.3733,
      "mean_anomaly_deg": 97.7089,
      "mean_motion_rev_day": 14.98314029
    },
    {
      "epoch": "2026-04-09T09:04:38.974368Z",
      "apogee_km": 573.6047412062553,
      "perigee_km": 570.5413666228915,
      "latitude_deg": -3.467137931650849e-05,
      "longitude_deg": 113.1995117600674,
      "height_km": 574.6843948557074,
      "semi_major_axis_km": 6950.210053914573,
      "eccentricity": 0.00022038,
      "inclination_deg": 70.0004,
      "raan_deg": 86.9892,
      "arg_perigee_deg": 263.0748,
      "mean_anomaly_deg": 97.016,
      "mean_motion_rev_day": 14.9832445
    },
    {
      "epoch": "2026-04-10T05:54:23.123808Z",
      "apogee_km": 574.2434868879727,
      "perigee_km": 569.8438835106272,
      "latitude_deg": 5.698856302200688e-05,
      "longitude_deg": 157.7215727690482,
      "height_km": 574.421264982356,
      "semi_major_axis_km": 6950.1806851993,
      "eccentricity": 0.00031651,
      "inclination_deg": 69.9988,
      "raan_deg": 84.8006,
      "arg_perigee_deg": 271.3009,
      "mean_anomaly_deg": 88.7788,
      "mean_motion_rev_day": 14.98333947
    },
    {
      "epoch": "2026-04-11T15:33:12.453120Z",
      "apogee_km": 574.1197032673117,
      "perigee_km": 569.9926785505495,
      "latitude_deg": 1.9387717151427536e-05,
      "longitude_deg": 8.09938288616256,
      "height_km": 574.4937393575343,
      "semi_major_axis_km": 6950.193190908931,
      "eccentricity": 0.0002969,
      "inclination_deg": 69.9993,
      "raan_deg": 81.2658,
      "arg_perigee_deg": 269.7175,
      "mean_anomaly_deg": 90.3644,
      "mean_motion_rev_day": 14.98329903
    }
  ]
}